HELIOS 1B               
1 25977U 99064A   26080.68573204  .00001716  00000+0  19457-3 0  9992
2 25977  98.1682 343.2809 0002130  58.1891 301.9532 14.87743547687041
TERRA                   
1 25994U 99068A   26080.92708913  .00000440  00000+0  98658-4 0  9993
2 25994  97.9567 133.8928 0003363 125.2910  47.8267 14.61027115396867
SL-16 R/B               
1 26070U 00006B   26080.95255682  .00000015  00000+0  32112-4 0  9997
2 26070  71.0006  72.0500 0016126 170.8883 189.2536 14.15823707350297
TITAN 4B R/B            
1 26474U 00047B   26080.88752610  .00005195  00000+0  32421-3 0  9991
2 26474  67.9918   6.2087 0039378  21.0273 339.2485 15.09674261394756
ENVISAT                 
1 27386U 02009A   26080.84050354  .00000117  00000+0  51857-4 0  9990
2 27386  98.3749  34.1500 0001271  81.8976 292.7223 14.39041050260924
IDEFIX & ARIANE 42P R/B 
1 27422U 02021B   26080.94158081  .00000256  00000+0  11370-3 0  9991
2 27422  98.5884  19.4023 0012283 146.5907 213.6054 14.31034007245777
AQUA                    
1 27424U 02022A   26080.93660946  .00000973  00000+0  20395-3 0  9994
2 27424  98.4196  48.5265 0000857 115.3892 312.2693 14.62004174270528
CZ-4B R/B               
1 27432U 02024C   26080.90720825  .00000037  00000+0  42254-4 0  9995
2 27432  98.8811 134.2509 0049847 349.5465 183.9731 14.14549836230964
MIDORI II (ADEOS-II)    
1 27597U 02056A   26080.84448271  .00000290  00000+0  13185-3 0  9998
2 27597  98.7790  39.4077 0001077  27.2984 332.8254 14.29293908212031
H-2A R/B                
1 27601U 02056E   26080.92159830  .00000272  00000+0  10958-3 0  9998
2 27601  98.3224  40.8230 0071141 124.5576 304.7694 14.33768436215867
CZ-4B R/B               
1 28059U 03049C   26080.89923585  .00000359  00000+0  93882-4 0  9995
2 28059  98.6891  76.2842 0047855 193.1270 166.8684 14.55031002188375
CZ-2C R/B               
1 28222U 04012C   26080.62811673  .00075469  00000+0  73544-3 0  9999
2 28222  97.7189 147.0630 0012932 260.9266  99.0530 15.65897272206149
SL-16 R/B               
1 28353U 04021B   26080.76101376 -.00000113  00000+0 -34028-4 0  9992
2 28353  70.9999 207.1594 0004634 354.7042   5.4030 14.14593344124542
CZ-4B R/B               
1 28415U 04035C   26080.81874363  .00010927  00000+0  38221-3 0  9995
2 28415  97.3474 114.9160 0030097 286.3685  73.4247 15.29264015181760
CZ-2C R/B               
1 28480U 04046B   26080.75631972  .00000135  00000+0  64688-4 0  9996
2 28480  98.1979 354.9888 0140434 118.9547 242.5800 14.26996055110227
ARIANE 5 R/B            
1 28499U 04049H   26080.89359232  .00000749  00000+0  89214-4 0  9993
2 28499  98.2645 249.8090 0083153 312.0964  47.3199 14.85286873147608
CZ-2D R/B               
1 28738U 05024B   26080.76326130  .00059126  00000+0  69651-3 0  9995
2 28738  97.3584  96.3614 0003719  11.2669 348.8671 15.61200388141669
