[{"OBJECT_NAME":"HELIOS 1B","OBJECT_ID":"1999-064A","EPOCH":"2026-03-21T16:27:27.248256","MEAN_MOTION":14.87743547,"ECCENTRICITY":0.00021306,"INCLINATION":98.1682,"RA_OF_ASC_NODE":343.2809,"ARG_OF_PERICENTER":58.1891,"MEAN_ANOMALY":301.9532,"EPHEMERIS_TYPE":0,"CLASSIFICATION_TYPE":"U","NORAD_CAT_ID":25977,"ELEMENT_SET_NO":999,"REV_AT_EPOCH":68704,"BSTAR":0.00019457351,"MEAN_MOTION_DOT":1.716e-5,"MEAN_MOTION_DDOT":0},{"OBJECT_NAME":"TERRA","OBJECT_ID":"1999-068A","EPOCH":"2026-03-21T22:15:00.500832","MEAN_MOTION":14.61027115,"ECCENTRICITY":0.0003363,"INCLINATION":97.9567,"RA_OF_ASC_NODE":133.8928,"ARG_OF_PERICENTER":125.291,"MEAN_ANOMALY":47.8267,"EPHEMERIS_TYPE":0,"CLASSIFICATION_TYPE":"U","NORAD_CAT_ID":25994,"ELEMENT_SET_NO":999,"REV_AT_EPOCH":39686,"BSTAR":9.8657869e-5,"MEAN_MOTION_DOT":4.4e-6,"MEAN_MOTION_DDOT":0},{"OBJECT_NAME":"SL-16 R/B","OBJECT_ID":"2000-006B","EPOCH":"2026-03-21T22:51:40.909248","MEAN_MOTION":14.15823707,"ECCENTRICITY":0.00161267,"INCLINATION":71.0006,"RA_OF_ASC_NODE":72.05,"ARG_OF_PERICENTER":170.8883,"MEAN_ANOMALY":189.2536,"EPHEMERIS_TYPE":0,"CLASSIFICATION_TYPE":"U","NORAD_CAT_ID":26070,"ELEMENT_SET_NO":999,"REV_AT_EPOCH":35029,"BSTAR":3.2111991e-5,"MEAN_MOTION_DOT":1.5e-7,"MEAN_MOTION_DDOT":0},{"OBJECT_NAME":"TITAN 4B R/B","OBJECT_ID":"2000-047B","EPOCH":"2026-03-21T21:18:02.255040","MEAN_MOTION":15.09674261,"ECCENTRICITY":0.00393785,"INCLINATION":67.9918,"RA_OF_ASC_NODE":6.2087,"ARG_OF_PERICENTER":21.0273,"MEAN_ANOMALY":339.2485,"EPHEMERIS_TYPE":0,"CLASSIFICATION_TYPE":"U","NORAD_CAT_ID":26474,"ELEMENT_SET_NO":999,"REV_AT_EPOCH":39475,"BSTAR":0.00032421216,"MEAN_MOTION_DOT":5.195e-5,"MEAN_MOTION_DDOT":0},{"OBJECT_NAME":"ENVISAT","OBJECT_ID":"2002-009A","EPOCH":"2026-03-21T20:10:19.505856","MEAN_MOTION":14.3904105,"ECCENTRICITY":0.00012711,"INCLINATION":98.3749,"RA_OF_ASC_NODE":34.15,"ARG_OF_PERICENTER":81.8976,"MEAN_ANOMALY":292.7223,"EPHEMERIS_TYPE":0,"CLASSIFICATION_TYPE":"U","NORAD_CAT_ID":27386,"ELEMENT_SET_NO":999,"REV_AT_EPOCH":26092,"BSTAR":5.1856841e-5,"MEAN_MOTION_DOT":1.17e-6,"MEAN_MOTION_DDOT":0},{"OBJECT_NAME":"IDEFIX & ARIANE 42P R/B","OBJECT_ID":"2002-021B","EPOCH":"2026-03-21T22:35:52.581984","MEAN_MOTION":14.31034007,"ECCENTRICITY":0.00122833,"INCLINATION":98.5884,"RA_OF_ASC_NODE":19.4023,"ARG_OF_PERICENTER":146.5907,"MEAN_ANOMALY":213.6054,"EPHEMERIS_TYPE":0,"CLASSIFICATION_TYPE":"U","NORAD_CAT_ID":27422,"ELEMENT_SET_NO":999,"REV_AT_EPOCH":24577,"BSTAR":0.00011370094,"MEAN_MOTION_DOT":2.56e-6,"MEAN_MOTION_DDOT":0},{"OBJECT_NAME":"AQUA","OBJECT_ID":"2002-022A","EPOCH":"2026-03-21T22:28:43.057344","MEAN_MOTION":14.62004174,"ECCENTRICITY":8.574e-5,"INCLINATION":98.4196,"RA_OF_ASC_NODE":48.5265,"ARG_OF_PERICENTER":115.3892,"MEAN_ANOMALY":312.2693,"EPHEMERIS_TYPE":0,"CLASSIFICATION_TYPE":"U","NORAD_CAT_ID":27424,"ELEMENT_SET_NO":999,"REV_AT_EPOCH":27052,"BSTAR":0.00020394899,"MEAN_MOTION_DOT":9.73e-6,"MEAN_MOTION_DDOT":0},{"OBJECT_NAME":"CZ-4B R/B","OBJECT_ID":"2002-024C","EPOCH":"2026-03-21T21:46:22.792800","MEAN_MOTION":14.14549836,"ECCENTRICITY":0.00498476,"INCLINATION":98.8811,"RA_OF_ASC_NODE":134.2509,"ARG_OF_PERICENTER":349.5465,"MEAN_ANOMALY":183.9731,"EPHEMERIS_TYPE":0,"CLASSIFICATION_TYPE":"U","NORAD_CAT_ID":27432,"ELEMENT_SET_NO":999,"REV_AT_EPOCH":23096,"BSTAR":4.2254011e-5,"MEAN_MOTION_DOT":3.7e-7,"MEAN_MOTION_DDOT":0},{"OBJECT_NAME":"MIDORI II (ADEOS-II)","OBJECT_ID":"2002-056A","EPOCH":"2026-03-21T20:16:03.306144","MEAN_MOTION":14.29293908,"ECCENTRICITY":0.00010778,"INCLINATION":98.779,"RA_OF_ASC_NODE":39.4077,"ARG_OF_PERICENTER":27.2984,"MEAN_ANOMALY":332.8254,"EPHEMERIS_TYPE":0,"CLASSIFICATION_TYPE":"U","NORAD_CAT_ID":27597,"ELEMENT_SET_NO":999,"REV_AT_EPOCH":21203,"BSTAR":0.00013184884,"MEAN_MOTION_DOT":2.9e-6,"MEAN_MOTION_DDOT":0},{"OBJECT_NAME":"H-2A R/B","OBJECT_ID":"2002-056E","EPOCH":"2026-03-21T22:07:06.093120","MEAN_MOTION":14.33768436,"ECCENTRICITY":0.0071141,"INCLINATION":98.3224,"RA_OF_ASC_NODE":40.823,"ARG_OF_PERICENTER":124.5576,"MEAN_ANOMALY":304.7694,"EPHEMERIS_TYPE":0,"CLASSIFICATION_TYPE":"U","NORAD_CAT_ID":27601,"ELEMENT_SET_NO":999,"REV_AT_EPOCH":21586,"BSTAR":0.00010957584,"MEAN_MOTION_DOT":2.72e-6,"MEAN_MOTION_DDOT":0},{"OBJECT_NAME":"CZ-4B R/B","OBJECT_ID":"2003-049C","EPOCH":"2026-03-21T21:34:53.977440","MEAN_MOTION":14.55031002,"ECCENTRICITY":0.00478554,"INCLINATION":98.6891,"RA_OF_ASC_NODE":76.2842,"ARG_OF_PERICENTER":193.127,"MEAN_ANOMALY":166.8684,"EPHEMERIS_TYPE":0,"CLASSIFICATION_TYPE":"U","NORAD_CAT_ID":28059,"ELEMENT_SET_NO":999,"REV_AT_EPOCH":18837,"BSTAR":9.3882234e-5,"MEAN_MOTION_DOT":3.59e-6,"MEAN_MOTION_DDOT":0},{"OBJECT_NAME":"CZ-2C R/B","OBJECT_ID":"2004-012C","EPOCH":"2026-03-21T15:04:29.285472","MEAN_MOTION":15.65897272,"ECCENTRICITY":0.00129323,"INCLINATION":97.7189,"RA_OF_ASC_NODE":147.063,"ARG_OF_PERICENTER":260.9266,"MEAN_ANOMALY":99.053,"EPHEMERIS_TYPE":0,"CLASSIFICATION_TYPE":"U","NORAD_CAT_ID":28222,"ELEMENT_SET_NO":999,"REV_AT_EPOCH":20614,"BSTAR":0.00073544128,"MEAN_MOTION_DOT":0.00075469,"MEAN_MOTION_DDOT":0},{"OBJECT_NAME":"SL-16 R/B","OBJECT_ID":"2004-021B","EPOCH":"2026-03-21T18:15:51.588864","MEAN_MOTION":14.14593344,"ECCENTRICITY":0.00046346,"INCLINATION":70.9999,"RA_OF_ASC_NODE":207.1594,"ARG_OF_PERICENTER":354.7042,"MEAN_ANOMALY":5.403,"EPHEMERIS_TYPE":0,"CLASSIFICATION_TYPE":"U","NORAD_CAT_ID":28353,"ELEMENT_SET_NO":999,"REV_AT_EPOCH":12454,"BSTAR":-3.4027595e-5,"MEAN_MOTION_DOT":-1.13e-6,"MEAN_MOTION_DDOT":0},{"OBJECT_NAME":"CZ-4B R/B","OBJECT_ID":"2004-035C","EPOCH":"2026-03-21T19:38:59.449632","MEAN_MOTION":15.29264015,"ECCENTRICITY":0.00300979,"INCLINATION":97.3474,"RA_OF_ASC_NODE":114.916,"ARG_OF_PERICENTER":286.3685,"MEAN_ANOMALY":73.4247,"EPHEMERIS_TYPE":0,"CLASSIFICATION_TYPE":"U","NORAD_CAT_ID":28415,"ELEMENT_SET_NO":999,"REV_AT_EPOCH":18176,"BSTAR":0.00038221293,"MEAN_MOTION_DOT":0.00010927,"MEAN_MOTION_DDOT":0},{"OBJECT_NAME":"CZ-2C R/B","OBJECT_ID":"2004-046B","EPOCH":"2026-03-21T18:09:06.023808","MEAN_MOTION":14.26996055,"ECCENTRICITY":0.01404349,"INCLINATION":98.1979,"RA_OF_ASC_NODE":354.9888,"ARG_OF_PERICENTER":118.9547,"MEAN_ANOMALY":242.58,"EPHEMERIS_TYPE":0,"CLASSIFICATION_TYPE":"U","NORAD_CAT_ID":28480,"ELEMENT_SET_NO":999,"REV_AT_EPOCH":11022,"BSTAR":6.4688056e-5,"MEAN_MOTION_DOT":1.35e-6,"MEAN_MOTION_DDOT":0},{"OBJECT_NAME":"ARIANE 5 R/B","OBJECT_ID":"2004-049H","EPOCH":"2026-03-21T21:26:46.376448","MEAN_MOTION":14.85286873,"ECCENTRICITY":0.00831537,"INCLINATION":98.2645,"RA_OF_ASC_NODE":249.809,"ARG_OF_PERICENTER":312.0964,"MEAN_ANOMALY":47.3199,"EPHEMERIS_TYPE":0,"CLASSIFICATION_TYPE":"U","NORAD_CAT_ID":28499,"ELEMENT_SET_NO":999,"REV_AT_EPOCH":14760,"BSTAR":8.9214031e-5,"MEAN_MOTION_DOT":7.49e-6,"MEAN_MOTION_DDOT":0},{"OBJECT_NAME":"CZ-2D R/B","OBJECT_ID":"2005-024B","EPOCH":"2026-03-21T18:19:05.776320","MEAN_MOTION":15.61200388,"ECCENTRICITY":0.00037194,"INCLINATION":97.3584,"RA_OF_ASC_NODE":96.3614,"ARG_OF_PERICENTER":11.2669,"MEAN_ANOMALY":348.8671,"EPHEMERIS_TYPE":0,"CLASSIFICATION_TYPE":"U","NORAD_CAT_ID":28738,"ELEMENT_SET_NO":999,"REV_AT_EPOCH":14166,"BSTAR":0.00069650626,"MEAN_MOTION_DOT":0.00059126,"MEAN_MOTION_DDOT":0}]
